{"type": "FeatureCollection", "features": [ {"type": "Feature", "properties": {"norad_id": 30096, "name": "FENGYUN 1C DEB", "group": "fengyun-1c-debris", "lat": 61.59960219574291, "lon": -96.93923849456971, "alt_km": 804.7282173549811, "timestamp": "2025-12-12T11:38:31.685760+00:00", "meta": {"OBJECT_NAME": "FENGYUN 1C DEB", "OBJECT_ID": "1999-025QZ", "EPOCH": "2025-12-12T04:22:53.133024", "MEAN_MOTION": 14.31689729, "ECCENTRICITY": 0.0079116, "INCLINATION": 99.1478, "RA_OF_ASC_NODE": 65.4043, "ARG_OF_PERICENTER": 234.046, "MEAN_ANOMALY": 125.3364, "EPHEMERIS_TYPE": 0, "CLASSIFICATION_TYPE": "U", "NORAD_CAT_ID": 30096, "ELEMENT_SET_NO": 999, "REV_AT_EPOCH": 98538, "BSTAR": 0.00049754, "MEAN_MOTION_DOT": 1.324e-05, "MEAN_MOTION_DDOT": 0}, "tle": {"line1": "1 30096U 99025QZ  25346.18255941  .00001324  00000+0  49754-3 0  9999", "line2": "2 30096  99.1478  65.4043 0079116 234.0460 125.3364 14.31689729985380"}}, "geometry": {"type": "Point", "coordinates": [-96.93923849456971, 61.59960219574291]}}, {"type": "Feature", "properties": {"norad_id": 30099, "name": "FENGYUN 1C DEB", "group": "fengyun-1c-debris", "lat": 5.24762631475463, "lon": 58.00695209400742, "alt_km": 829.2602066186391, "timestamp": "2025-12-12T11:38:31.685770+00:00", "meta": {"OBJECT_NAME": "FENGYUN 1C DEB", "OBJECT_ID": "1999-025RC", "EPOCH": "2025-12-12T03:27:51.693120", "MEAN_MOTION": 14.25935662, "ECCENTRICITY": 0.0061076, "INCLINATION": 98.5409, "RA_OF_ASC_NODE": 58.4657, "ARG_OF_PERICENTER": 246.4833, "MEAN_ANOMALY": 170.18, "EPHEMERIS_TYPE": 0, "CLASSIFICATION_TYPE": "U", "NORAD_CAT_ID": 30099, "ELEMENT_SET_NO": 999, "REV_AT_EPOCH": 98181, "BSTAR": 0.00045229, "MEAN_MOTION_DOT": 1.056e-05, "MEAN_MOTION_DDOT": 0}, "tle": {"line1": "1 30099U 99025RC  25346.14434830  .00001056  00000+0  45229-3 0  9999", "line2": "2 30099  98.5409  58.4657 0061076 246.4833 170.1800 14.25935662981810"}}, "geometry": {"type": "Point", "coordinates": [58.00695209400742, 5.24762631475463]}}, {"type": "Feature", "properties": {"norad_id": 30102, "name": "FENGYUN 1C DEB", "group": "fengyun-1c-debris", "lat": -10.805307877338876, "lon": 172.66245955997834, "alt_km": 922.8635750278627, "timestamp": "2025-12-12T11:38:31.685781+00:00", "meta": {"OBJECT_NAME": "FENGYUN 1C DEB", "OBJECT_ID": "1999-025RF", "EPOCH": "2025-12-11T23:12:01.481184", "MEAN_MOTION": 14.22128246, "ECCENTRICITY": 0.0141743, "INCLINATION": 98.3792, "RA_OF_ASC_NODE": 353.7816, "ARG_OF_PERICENTER": 2.4842, "MEAN_ANOMALY": 56.0558, "EPHEMERIS_TYPE": 0, "CLASSIFICATION_TYPE": "U", "NORAD_CAT_ID": 30102, "ELEMENT_SET_NO": 999, "REV_AT_EPOCH": 97947, "BSTAR": 0.00050822, "MEAN_MOTION_DOT": 1.206e-05, "MEAN_MOTION_DDOT": 0}, "tle": {"line1": "1 30102U 99025RF  25345.96668381  .00001206  00000+0  50822-3 0  9995", "line2": "2 30102  98.3792 353.7816 0141743   2.4842  56.0558 14.22128246979476"}}, "geometry": {"type": "Point", "coordinates": [172.66245955997834, -10.805307877338876]}}, {"type": "Feature", "properties": {"norad_id": 30103, "name": "FENGYUN 1C DEB", "group": "fengyun-1c-debris", "lat": -9.408815725308616, "lon": 146.40512302456145, "alt_km": 796.1347475878529, "timestamp": "2025-12-12T11:38:31.685791+00:00", "meta": {"OBJECT_NAME": "FENGYUN 1C DEB", "OBJECT_ID": "1999-025RG", "EPOCH": "2025-12-11T21:35:08.941056", "MEAN_MOTION": 14.2485539, "ECCENTRICITY": 0.0064119, "INCLINATION": 99.245, "RA_OF_ASC_NODE": 327.3353, "ARG_OF_PERICENTER": 122.2328, "MEAN_ANOMALY": 303.9369, "EPHEMERIS_TYPE": 0, "CLASSIFICATION_TYPE": "U", "NORAD_CAT_ID": 30103, "ELEMENT_SET_NO": 999, "REV_AT_EPOCH": 97907, "BSTAR": 0.00065485, "MEAN_MOTION_DOT": 1.514e-05, "MEAN_MOTION_DDOT": 0}, "tle": {"line1": "1 30103U 99025RG  25345.89940904  .00001514  00000+0  65485-3 0  9995", "line2": "2 30103  99.2450 327.3353 0064119 122.2328 303.9369 14.24855390979071"}}, "geometry": {"type": "Point", "coordinates": [146.40512302456145, -9.408815725308616]}}, {"type": "Feature", "properties": {"norad_id": 30104, "name": "FENGYUN 1C DEB", "group": "fengyun-1c-debris", "lat": 33.50277220755643, "lon": 177.9771215844338, "alt_km": 789.9217837924652, "timestamp": "2025-12-12T11:38:31.685801+00:00", "meta": {"OBJECT_NAME": "FENGYUN 1C DEB", "OBJECT_ID": "1999-025RH", "EPOCH": "2025-12-12T00:24:24.027264", "MEAN_MOTION": 14.25663107, "ECCENTRICITY": 0.0073991, "INCLINATION": 98.3595, "RA_OF_ASC_NODE": 183.1163, "ARG_OF_PERICENTER": 110.2901, "MEAN_ANOMALY": 43.207, "EPHEMERIS_TYPE": 0, "CLASSIFICATION_TYPE": "U", "NORAD_CAT_ID": 30104, "ELEMENT_SET_NO": 999, "REV_AT_EPOCH": 97882, "BSTAR": 0.0010651, "MEAN_MOTION_DOT": 2.559e-05, "MEAN_MOTION_DDOT": 0}, "tle": {"line1": "1 30104U 99025RH  25346.01694476  .00002559  00000+0  10651-2 0  9995", "line2": "2 30104  98.3595 183.1163 0073991 110.2901  43.2070 14.25663107978820"}}, "geometry": {"type": "Point", "coordinates": [177.9771215844338, 33.50277220755643]}}, {"type": "Feature", "properties": {"norad_id": 30105, "name": "FENGYUN 1C DEB", "group": "fengyun-1c-debris", "lat": 29.790323737210333, "lon": 157.5030443418432, "alt_km": 779.3171704525403, "timestamp": "2025-12-12T11:38:31.685812+00:00", "meta": {"OBJECT_NAME": "FENGYUN 1C DEB", "OBJECT_ID": "1999-025RJ", "EPOCH": "2025-12-11T21:26:42.820224", "MEAN_MOTION": 14.21396336, "ECCENTRICITY": 0.0199797, "INCLINATION": 98.5939, "RA_OF_ASC_NODE": 331.9604, "ARG_OF_PERICENTER": 76.3955, "MEAN_ANOMALY": 285.9388, "EPHEMERIS_TYPE": 0, "CLASSIFICATION_TYPE": "U", "NORAD_CAT_ID": 30105, "ELEMENT_SET_NO": 999, "REV_AT_EPOCH": 97750, "BSTAR": 0.0004876, "MEAN_MOTION_DOT": 1.26e-05, "MEAN_MOTION_DDOT": 0}, "tle": {"line1": "1 30105U 99025RJ  25345.89355116  .00001260  00000+0  48760-3 0  9997", "line2": "2 30105  98.5939 331.9604 0199797  76.3955 285.9388 14.21396336977506"}}, "geometry": {"type": "Point", "coordinates": [157.5030443418432, 29.790323737210333]}}, {"type": "Feature", "properties": {"norad_id": 30106, "name": "FENGYUN 1C DEB", "group": "fengyun-1c-debris", "lat": 69.79848710872805, "lon": -131.47762326859097, "alt_km": 626.086148594879, "timestamp": "2025-12-12T11:38:31.685822+00:00", "meta": {"OBJECT_NAME": "FENGYUN 1C DEB", "OBJECT_ID": "1999-025RK", "EPOCH": "2025-12-11T17:37:27.585120", "MEAN_MOTION": 14.85038599, "ECCENTRICITY": 0.00471025, "INCLINATION": 98.9223, "RA_OF_ASC_NODE": 252.9567, "ARG_OF_PERICENTER": 201.0448, "MEAN_ANOMALY": 179.9467, "EPHEMERIS_TYPE": 0, "CLASSIFICATION_TYPE": "U", "NORAD_CAT_ID": 30106, "ELEMENT_SET_NO": 999, "REV_AT_EPOCH": 98530, "BSTAR": 0.0053352842, "MEAN_MOTION_DOT": 0.00046687, "MEAN_MOTION_DDOT": 0}, "tle": {"line1": "1 30106U 99025RK  25345.73434705  .00046687  00000+0  53353-2 0  9998", "line2": "2 30106  98.9223 252.9567 0047102 201.0448 179.9467 14.85038599985304"}}, "geometry": {"type": "Point", "coordinates": [-131.47762326859097, 69.79848710872805]}}, {"type": "Feature", "properties": {"norad_id": 30107, "name": "FENGYUN 1C DEB", "group": "fengyun-1c-debris", "lat": 61.95549937574982, "lon": 26.40620575800999, "alt_km": 914.3471960346596, "timestamp": "2025-12-12T11:38:31.685832+00:00", "meta": {"OBJECT_NAME": "FENGYUN 1C DEB", "OBJECT_ID": "1999-025RL", "EPOCH": "2025-12-11T14:58:04.761408", "MEAN_MOTION": 14.1442134, "ECCENTRICITY": 0.0126312, "INCLINATION": 98.8473, "RA_OF_ASC_NODE": 42.5533, "ARG_OF_PERICENTER": 278.8206, "MEAN_ANOMALY": 79.8682, "EPHEMERIS_TYPE": 0, "CLASSIFICATION_TYPE": "U", "NORAD_CAT_ID": 30107, "ELEMENT_SET_NO": 999, "REV_AT_EPOCH": 97545, "BSTAR": 0.00017435205, "MEAN_MOTION_DOT": 3.15e-06, "MEAN_MOTION_DDOT": 0}, "tle": {"line1": "1 30107U 99025RL  25345.62366622  .00000315  00000+0  17435-3 0  9999", "line2": "2 30107  98.8473  42.5533 0126312 278.8206  79.8682 14.14421340975456"}}, "geometry": {"type": "Point", "coordinates": [26.40620575800999, 61.95549937574982]}}, {"type": "Feature", "properties": {"norad_id": 30108, "name": "FENGYUN 1C DEB", "group": "fengyun-1c-debris", "lat": -38.15095488550754, "lon": -20.77947537247697, "alt_km": 771.049204120267, "timestamp": "2025-12-12T11:38:31.685842+00:00", "meta": {"OBJECT_NAME": "FENGYUN 1C DEB", "OBJECT_ID": "1999-025RM", "EPOCH": "2025-12-11T22:23:53.932704", "MEAN_MOTION": 14.17169762, "ECCENTRICITY": 0.0197707, "INCLINATION": 98.6601, "RA_OF_ASC_NODE": 331.8067, "ARG_OF_PERICENTER": 24.4909, "MEAN_ANOMALY": 5.1842, "EPHEMERIS_TYPE": 0, "CLASSIFICATION_TYPE": "U", "NORAD_CAT_ID": 30108, "ELEMENT_SET_NO": 999, "REV_AT_EPOCH": 97587, "BSTAR": 0.00057541, "MEAN_MOTION_DOT": 1.361e-05, "MEAN_MOTION_DDOT": 0}, "tle": {"line1": "1 30108U 99025RM  25345.93326311  .00001361  00000+0  57541-3 0  9999", "line2": "2 30108  98.6601 331.8067 0197707  24.4909   5.1842 14.17169762975871"}}, "geometry": {"type": "Point", "coordinates": [-20.77947537247697, -38.15095488550754]}}, {"type": "Feature", "properties": {"norad_id": 30109, "name": "FENGYUN 1C DEB", "group": "fengyun-1c-debris", "lat": 71.28763495261627, "lon": -46.21919105990699, "alt_km": 939.7828047885741, "timestamp": "2025-12-12T11:38:31.685853+00:00", "meta": {"OBJECT_NAME": "FENGYUN 1C DEB", "OBJECT_ID": "1999-025RN", "EPOCH": "2025-12-11T23:43:42.091968", "MEAN_MOTION": 14.17547172, "ECCENTRICITY": 0.016729, "INCLINATION": 98.5079, "RA_OF_ASC_NODE": 339.5315, "ARG_OF_PERICENTER": 234.5762, "MEAN_ANOMALY": 187.578, "EPHEMERIS_TYPE": 0, "CLASSIFICATION_TYPE": "U", "NORAD_CAT_ID": 30109, "ELEMENT_SET_NO": 999, "REV_AT_EPOCH": 97541, "BSTAR": 0.00054, "MEAN_MOTION_DOT": 1.215e-05, "MEAN_MOTION_DDOT": 0}, "tle": {"line1": "1 30109U 99025RN  25345.98868162  .00001215  00000+0  54000-3 0  9995", "line2": "2 30109  98.5079 339.5315 0167290 234.5762 187.5780 14.17547172975417"}}, "geometry": {"type": "Point", "coordinates": [-46.21919105990699, 71.28763495261627]}}]}